{
 "type": "FeatureCollection",
 "features": [
  {
   "type": "Feature",
   "geometry": {
    "type": "Point",
    "coordinates": [
     12.531384,
     55.722899
    ]
   },
   "properties": {
    "area_m2": 50800,
    "max_depth_band": ">2",
    "implied_volume_m3": 71655,
    "distance_to_nearest_planned_work_m": 101
   }
  },
  {
   "type": "Feature",
   "geometry": {
    "type": "Point",
    "coordinates": [
     12.457522,
     55.706638
    ]
   },
   "properties": {
    "area_m2": 32700,
    "max_depth_band": "1-2",
    "implied_volume_m3": 48750,
    "distance_to_nearest_planned_work_m": 101
   }
  },
  {
   "type": "Feature",
   "geometry": {
    "type": "Point",
    "coordinates": [
     12.639083,
     55.660953
    ]
   },
   "properties": {
    "area_m2": 31900,
    "max_depth_band": "0.5-1",
    "implied_volume_m3": 23925,
    "distance_to_nearest_planned_work_m": 158
   }
  },
  {
   "type": "Feature",
   "geometry": {
    "type": "Point",
    "coordinates": [
     12.529237,
     55.725225
    ]
   },
   "properties": {
    "area_m2": 21300,
    "max_depth_band": "1-2",
    "implied_volume_m3": 17325,
    "distance_to_nearest_planned_work_m": 101
   }
  },
  {
   "type": "Feature",
   "geometry": {
    "type": "Point",
    "coordinates": [
     12.566937,
     55.667842
    ]
   },
   "properties": {
    "area_m2": 24900,
    "max_depth_band": ">2",
    "implied_volume_m3": 16810,
    "distance_to_nearest_planned_work_m": 109
   }
  },
  {
   "type": "Feature",
   "geometry": {
    "type": "Point",
    "coordinates": [
     12.558943,
     55.702538
    ]
   },
   "properties": {
    "area_m2": 28700,
    "max_depth_band": "1-2",
    "implied_volume_m3": 14505,
    "distance_to_nearest_planned_work_m": 101
   }
  },
  {
   "type": "Feature",
   "geometry": {
    "type": "Point",
    "coordinates": [
     12.524254,
     55.700747
    ]
   },
   "properties": {
    "area_m2": 18700,
    "max_depth_band": ">2",
    "implied_volume_m3": 14430,
    "distance_to_nearest_planned_work_m": 101
   }
  },
  {
   "type": "Feature",
   "geometry": {
    "type": "Point",
    "coordinates": [
     12.550697,
     55.661438
    ]
   },
   "properties": {
    "area_m2": 19400,
    "max_depth_band": "0.5-1",
    "implied_volume_m3": 14350,
    "distance_to_nearest_planned_work_m": 239
   }
  },
  {
   "type": "Feature",
   "geometry": {
    "type": "Point",
    "coordinates": [
     12.556694,
     55.720825
    ]
   },
   "properties": {
    "area_m2": 12100,
    "max_depth_band": ">2",
    "implied_volume_m3": 13315,
    "distance_to_nearest_planned_work_m": 109
   }
  },
  {
   "type": "Feature",
   "geometry": {
    "type": "Point",
    "coordinates": [
     12.480879,
     55.720506
    ]
   },
   "properties": {
    "area_m2": 19200,
    "max_depth_band": "0.5-1",
    "implied_volume_m3": 13240,
    "distance_to_nearest_planned_work_m": 104
   }
  },
  {
   "type": "Feature",
   "geometry": {
    "type": "Point",
    "coordinates": [
     12.555348,
     55.665699
    ]
   },
   "properties": {
    "area_m2": 16900,
    "max_depth_band": ">2",
    "implied_volume_m3": 12845,
    "distance_to_nearest_planned_work_m": 105
   }
  },
  {
   "type": "Feature",
   "geometry": {
    "type": "Point",
    "coordinates": [
     12.491445,
     55.709599
    ]
   },
   "properties": {
    "area_m2": 21700,
    "max_depth_band": "0.5-1",
    "implied_volume_m3": 12795,
    "distance_to_nearest_planned_work_m": 101
   }
  },
  {
   "type": "Feature",
   "geometry": {
    "type": "Point",
    "coordinates": [
     12.455912,
     55.716052
    ]
   },
   "properties": {
    "area_m2": 8000,
    "max_depth_band": ">2",
    "implied_volume_m3": 12100,
    "distance_to_nearest_planned_work_m": 104
   }
  },
  {
   "type": "Feature",
   "geometry": {
    "type": "Point",
    "coordinates": [
     12.643414,
     55.648794
    ]
   },
   "properties": {
    "area_m2": 6000,
    "max_depth_band": ">2",
    "implied_volume_m3": 11900,
    "distance_to_nearest_planned_work_m": 101
   }
  },
  {
   "type": "Feature",
   "geometry": {
    "type": "Point",
    "coordinates": [
     12.583075,
     55.670746
    ]
   },
   "properties": {
    "area_m2": 33800,
    "max_depth_band": "0.2-0.5",
    "implied_volume_m3": 11830,
    "distance_to_nearest_planned_work_m": 105
   }
  },
  {
   "type": "Feature",
   "geometry": {
    "type": "Point",
    "coordinates": [
     12.533749,
     55.723828
    ]
   },
   "properties": {
    "area_m2": 7500,
    "max_depth_band": "1-2",
    "implied_volume_m3": 10650,
    "distance_to_nearest_planned_work_m": 101
   }
  },
  {
   "type": "Feature",
   "geometry": {
    "type": "Point",
    "coordinates": [
     12.564372,
     55.725055
    ]
   },
   "properties": {
    "area_m2": 5600,
    "max_depth_band": ">2",
    "implied_volume_m3": 9745,
    "distance_to_nearest_planned_work_m": 110
   }
  },
  {
   "type": "Feature",
   "geometry": {
    "type": "Point",
    "coordinates": [
     12.453422,
     55.708105
    ]
   },
   "properties": {
    "area_m2": 6200,
    "max_depth_band": "1-2",
    "implied_volume_m3": 9300,
    "distance_to_nearest_planned_work_m": 150
   }
  },
  {
   "type": "Feature",
   "geometry": {
    "type": "Point",
    "coordinates": [
     12.459474,
     55.685141
    ]
   },
   "properties": {
    "area_m2": 5900,
    "max_depth_band": "1-2",
    "implied_volume_m3": 8850,
    "distance_to_nearest_planned_work_m": 450
   }
  },
  {
   "type": "Feature",
   "geometry": {
    "type": "Point",
    "coordinates": [
     12.555709,
     55.712956
    ]
   },
   "properties": {
    "area_m2": 7500,
    "max_depth_band": "1-2",
    "implied_volume_m3": 8640,
    "distance_to_nearest_planned_work_m": 101
   }
  },
  {
   "type": "Feature",
   "geometry": {
    "type": "Point",
    "coordinates": [
     12.46348,
     55.657107
    ]
   },
   "properties": {
    "area_m2": 11500,
    "max_depth_band": "0.5-1",
    "implied_volume_m3": 8625,
    "distance_to_nearest_planned_work_m": 754
   }
  },
  {
   "type": "Feature",
   "geometry": {
    "type": "Point",
    "coordinates": [
     12.574685,
     55.728342
    ]
   },
   "properties": {
    "area_m2": 12800,
    "max_depth_band": "1-2",
    "implied_volume_m3": 7950,
    "distance_to_nearest_planned_work_m": 160
   }
  },
  {
   "type": "Feature",
   "geometry": {
    "type": "Point",
    "coordinates": [
     12.503186,
     55.707152
    ]
   },
   "properties": {
    "area_m2": 12200,
    "max_depth_band": "0.5-1",
    "implied_volume_m3": 7910,
    "distance_to_nearest_planned_work_m": 101
   }
  },
  {
   "type": "Feature",
   "geometry": {
    "type": "Point",
    "coordinates": [
     12.592883,
     55.656216
    ]
   },
   "properties": {
    "area_m2": 6300,
    "max_depth_band": ">2",
    "implied_volume_m3": 7675,
    "distance_to_nearest_planned_work_m": 102
   }
  },
  {
   "type": "Feature",
   "geometry": {
    "type": "Point",
    "coordinates": [
     12.517805,
     55.698725
    ]
   },
   "properties": {
    "area_m2": 14200,
    "max_depth_band": "0.5-1",
    "implied_volume_m3": 7370,
    "distance_to_nearest_planned_work_m": 104
   }
  },
  {
   "type": "Feature",
   "geometry": {
    "type": "Point",
    "coordinates": [
     12.634343,
     55.670768
    ]
   },
   "properties": {
    "area_m2": 17100,
    "max_depth_band": "0.5-1",
    "implied_volume_m3": 6825,
    "distance_to_nearest_planned_work_m": 433
   }
  },
  {
   "type": "Feature",
   "geometry": {
    "type": "Point",
    "coordinates": [
     12.483034,
     55.670753
    ]
   },
   "properties": {
    "area_m2": 19100,
    "max_depth_band": "0.2-0.5",
    "implied_volume_m3": 6685,
    "distance_to_nearest_planned_work_m": 101
   }
  },
  {
   "type": "Feature",
   "geometry": {
    "type": "Point",
    "coordinates": [
     12.504175,
     55.696318
    ]
   },
   "properties": {
    "area_m2": 10700,
    "max_depth_band": "0.5-1",
    "implied_volume_m3": 6185,
    "distance_to_nearest_planned_work_m": 102
   }
  },
  {
   "type": "Feature",
   "geometry": {
    "type": "Point",
    "coordinates": [
     12.578088,
     55.668058
    ]
   },
   "properties": {
    "area_m2": 17400,
    "max_depth_band": "0.2-0.5",
    "implied_volume_m3": 6090,
    "distance_to_nearest_planned_work_m": 147
   }
  },
  {
   "type": "Feature",
   "geometry": {
    "type": "Point",
    "coordinates": [
     12.472771,
     55.722173
    ]
   },
   "properties": {
    "area_m2": 12200,
    "max_depth_band": "0.5-1",
    "implied_volume_m3": 5910,
    "distance_to_nearest_planned_work_m": 529
   }
  },
  {
   "type": "Feature",
   "geometry": {
    "type": "Point",
    "coordinates": [
     12.487073,
     55.673905
    ]
   },
   "properties": {
    "area_m2": 7500,
    "max_depth_band": "0.5-1",
    "implied_volume_m3": 5625,
    "distance_to_nearest_planned_work_m": 104
   }
  },
  {
   "type": "Feature",
   "geometry": {
    "type": "Point",
    "coordinates": [
     12.551431,
     55.691626
    ]
   },
   "properties": {
    "area_m2": 7400,
    "max_depth_band": "0.5-1",
    "implied_volume_m3": 5550,
    "distance_to_nearest_planned_work_m": 110
   }
  },
  {
   "type": "Feature",
   "geometry": {
    "type": "Point",
    "coordinates": [
     12.476299,
     55.719479
    ]
   },
   "properties": {
    "area_m2": 13000,
    "max_depth_band": "0.5-1",
    "implied_volume_m3": 5310,
    "distance_to_nearest_planned_work_m": 109
   }
  },
  {
   "type": "Feature",
   "geometry": {
    "type": "Point",
    "coordinates": [
     12.478859,
     55.720097
    ]
   },
   "properties": {
    "area_m2": 5300,
    "max_depth_band": ">2",
    "implied_volume_m3": 4865,
    "distance_to_nearest_planned_work_m": 104
   }
  },
  {
   "type": "Feature",
   "geometry": {
    "type": "Point",
    "coordinates": [
     12.519749,
     55.71777
    ]
   },
   "properties": {
    "area_m2": 8900,
    "max_depth_band": "0.5-1",
    "implied_volume_m3": 4835,
    "distance_to_nearest_planned_work_m": 226
   }
  },
  {
   "type": "Feature",
   "geometry": {
    "type": "Point",
    "coordinates": [
     12.50407,
     55.701272
    ]
   },
   "properties": {
    "area_m2": 8300,
    "max_depth_band": "1-2",
    "implied_volume_m3": 4765,
    "distance_to_nearest_planned_work_m": 137
   }
  },
  {
   "type": "Feature",
   "geometry": {
    "type": "Point",
    "coordinates": [
     12.48756,
     55.713416
    ]
   },
   "properties": {
    "area_m2": 8100,
    "max_depth_band": "0.5-1",
    "implied_volume_m3": 4715,
    "distance_to_nearest_planned_work_m": 156
   }
  },
  {
   "type": "Feature",
   "geometry": {
    "type": "Point",
    "coordinates": [
     12.638919,
     55.667292
    ]
   },
   "properties": {
    "area_m2": 13300,
    "max_depth_band": "0.2-0.5",
    "implied_volume_m3": 4655,
    "distance_to_nearest_planned_work_m": 242
   }
  },
  {
   "type": "Feature",
   "geometry": {
    "type": "Point",
    "coordinates": [
     12.548198,
     55.649958
    ]
   },
   "properties": {
    "area_m2": 13300,
    "max_depth_band": "0.2-0.5",
    "implied_volume_m3": 4655,
    "distance_to_nearest_planned_work_m": 180
   }
  },
  {
   "type": "Feature",
   "geometry": {
    "type": "Point",
    "coordinates": [
     12.496787,
     55.710527
    ]
   },
   "properties": {
    "area_m2": 8600,
    "max_depth_band": "0.5-1",
    "implied_volume_m3": 4450,
    "distance_to_nearest_planned_work_m": 102
   }
  },
  {
   "type": "Feature",
   "geometry": {
    "type": "Point",
    "coordinates": [
     12.557557,
     55.725558
    ]
   },
   "properties": {
    "area_m2": 7200,
    "max_depth_band": "0.5-1",
    "implied_volume_m3": 4320,
    "distance_to_nearest_planned_work_m": 110
   }
  },
  {
   "type": "Feature",
   "geometry": {
    "type": "Point",
    "coordinates": [
     12.537959,
     55.693355
    ]
   },
   "properties": {
    "area_m2": 9000,
    "max_depth_band": "0.5-1",
    "implied_volume_m3": 4310,
    "distance_to_nearest_planned_work_m": 104
   }
  },
  {
   "type": "Feature",
   "geometry": {
    "type": "Point",
    "coordinates": [
     12.541214,
     55.698928
    ]
   },
   "properties": {
    "area_m2": 8800,
    "max_depth_band": "0.5-1",
    "implied_volume_m3": 4280,
    "distance_to_nearest_planned_work_m": 104
   }
  },
  {
   "type": "Feature",
   "geometry": {
    "type": "Point",
    "coordinates": [
     12.56961,
     55.71648
    ]
   },
   "properties": {
    "area_m2": 5400,
    "max_depth_band": "1-2",
    "implied_volume_m3": 4250,
    "distance_to_nearest_planned_work_m": 104
   }
  },
  {
   "type": "Feature",
   "geometry": {
    "type": "Point",
    "coordinates": [
     12.476144,
     55.716926
    ]
   },
   "properties": {
    "area_m2": 4800,
    "max_depth_band": "1-2",
    "implied_volume_m3": 4235,
    "distance_to_nearest_planned_work_m": 141
   }
  },
  {
   "type": "Feature",
   "geometry": {
    "type": "Point",
    "coordinates": [
     12.640216,
     55.669903
    ]
   },
   "properties": {
    "area_m2": 12100,
    "max_depth_band": "0.2-0.5",
    "implied_volume_m3": 4235,
    "distance_to_nearest_planned_work_m": 498
   }
  },
  {
   "type": "Feature",
   "geometry": {
    "type": "Point",
    "coordinates": [
     12.473249,
     55.719167
    ]
   },
   "properties": {
    "area_m2": 6800,
    "max_depth_band": "1-2",
    "implied_volume_m3": 4205,
    "distance_to_nearest_planned_work_m": 360
   }
  },
  {
   "type": "Feature",
   "geometry": {
    "type": "Point",
    "coordinates": [
     12.55958,
     55.713205
    ]
   },
   "properties": {
    "area_m2": 7900,
    "max_depth_band": "0.5-1",
    "implied_volume_m3": 4005,
    "distance_to_nearest_planned_work_m": 187
   }
  },
  {
   "type": "Feature",
   "geometry": {
    "type": "Point",
    "coordinates": [
     12.524847,
     55.716808
    ]
   },
   "properties": {
    "area_m2": 7000,
    "max_depth_band": "0.5-1",
    "implied_volume_m3": 3730,
    "distance_to_nearest_planned_work_m": 160
   }
  },
  {
   "type": "Feature",
   "geometry": {
    "type": "Point",
    "coordinates": [
     12.614243,
     55.647365
    ]
   },
   "properties": {
    "area_m2": 4300,
    "max_depth_band": "1-2",
    "implied_volume_m3": 3670,
    "distance_to_nearest_planned_work_m": 104
   }
  },
  {
   "type": "Feature",
   "geometry": {
    "type": "Point",
    "coordinates": [
     12.519481,
     55.70603
    ]
   },
   "properties": {
    "area_m2": 5600,
    "max_depth_band": "1-2",
    "implied_volume_m3": 3435,
    "distance_to_nearest_planned_work_m": 102
   }
  },
  {
   "type": "Feature",
   "geometry": {
    "type": "Point",
    "coordinates": [
     12.591163,
     55.696175
    ]
   },
   "properties": {
    "area_m2": 4300,
    "max_depth_band": "0.5-1",
    "implied_volume_m3": 2825,
    "distance_to_nearest_planned_work_m": 110
   }
  },
  {
   "type": "Feature",
   "geometry": {
    "type": "Point",
    "coordinates": [
     12.535169,
     55.701588
    ]
   },
   "properties": {
    "area_m2": 5400,
    "max_depth_band": "1-2",
    "implied_volume_m3": 2645,
    "distance_to_nearest_planned_work_m": 101
   }
  },
  {
   "type": "Feature",
   "geometry": {
    "type": "Point",
    "coordinates": [
     12.507113,
     55.701911
    ]
   },
   "properties": {
    "area_m2": 4200,
    "max_depth_band": "0.5-1",
    "implied_volume_m3": 2190,
    "distance_to_nearest_planned_work_m": 177
   }
  },
  {
   "type": "Feature",
   "geometry": {
    "type": "Point",
    "coordinates": [
     12.557601,
     55.728712
    ]
   },
   "properties": {
    "area_m2": 4600,
    "max_depth_band": "0.5-1",
    "implied_volume_m3": 2050,
    "distance_to_nearest_planned_work_m": 280
   }
  },
  {
   "type": "Feature",
   "geometry": {
    "type": "Point",
    "coordinates": [
     12.637517,
     55.669186
    ]
   },
   "properties": {
    "area_m2": 5500,
    "max_depth_band": "0.2-0.5",
    "implied_volume_m3": 1925,
    "distance_to_nearest_planned_work_m": 435
   }
  },
  {
   "type": "Feature",
   "geometry": {
    "type": "Point",
    "coordinates": [
     12.51963,
     55.716671
    ]
   },
   "properties": {
    "area_m2": 4800,
    "max_depth_band": "0.5-1",
    "implied_volume_m3": 1800,
    "distance_to_nearest_planned_work_m": 112
   }
  },
  {
   "type": "Feature",
   "geometry": {
    "type": "Point",
    "coordinates": [
     12.640557,
     55.670837
    ]
   },
   "properties": {
    "area_m2": 5000,
    "max_depth_band": "0.2-0.5",
    "implied_volume_m3": 1750,
    "distance_to_nearest_planned_work_m": 715
   }
  },
  {
   "type": "Feature",
   "geometry": {
    "type": "Point",
    "coordinates": [
     12.554248,
     55.652331
    ]
   },
   "properties": {
    "area_m2": 4200,
    "max_depth_band": "0.2-0.5",
    "implied_volume_m3": 1470,
    "distance_to_nearest_planned_work_m": 470
   }
  },
  {
   "type": "Feature",
   "geometry": {
    "type": "Point",
    "coordinates": [
     12.56271,
     55.658929
    ]
   },
   "properties": {
    "area_m2": 4000,
    "max_depth_band": "0.2-0.5",
    "implied_volume_m3": 1400,
    "distance_to_nearest_planned_work_m": 280
   }
  }
 ]
}